STARLINK-2306
1 27988C 21024M   21325.14708280  .00002867  00000-0  19218-3 0  3258
2 27988  53.0543 157.5711 0001819  77.3549 234.5435 15.06383147    14
